BEIDOU-2 IGSO-1 (C06)   
1 36828U 10036A   26110.77904856 -.00000086  00000+0  00000+0 0  9996
2 36828  54.2917 163.4792 0058390 223.9329 208.1190  1.00288787 57525
BEIDOU-2 G4 (C04)       
1 37210U 10057A   26111.57341631 -.00000118  00000+0  00000+0 0  9996
2 37210   3.5067  69.2514 0006763 212.9964 293.7860  1.00270022 56727
BEIDOU-2 IGSO-2 (C07)   
1 37256U 10068A   26111.38102102 -.00000201  00000+0  00000+0 0  9998
2 37256  47.6552 272.5336 0053152 211.5233 326.7486  1.00301129 56223
BEIDOU-2 IGSO-3 (C08)   
1 37384U 11013A   26110.76586486 -.00000197  00000+0  00000+0 0  9997
2 37384  62.3346  40.6958 0033881 187.9238   3.9792  1.00280992 55083
BEIDOU-2 IGSO-4 (C09)   
1 37763U 11038A   26110.95130253 -.00000015  00000+0  00000+0 0  9992
2 37763  54.5868 166.1972 0158375 231.6843 245.8930  1.00257080 54072
BEIDOU-2 IGSO-5 (C10)   
1 37948U 11073A   26110.89867014 -.00000159  00000+0  00000+0 0  9990
2 37948  47.7853 272.2501 0110488 220.4986 133.6150  1.00260965 52554
BEIDOU-2 G5 (C05)       
1 38091U 12008A   26111.51454477  .00000052  00000+0  00000+0 0  9995
2 38091   3.4325  70.0047 0012404 264.7494 118.7995  1.00271282 51802
BEIDOU-2 M3 (C11)       
1 38250U 12018A   26109.66030179 -.00000037  00000+0  00000+0 0  9999
2 38250  55.8082 306.8477 0019883 278.5344  81.2477  1.86229935 94855
BEIDOU-2 M4 (C12)       
1 38251U 12018B   26109.59251307 -.00000036  00000+0  00000+0 0  9999
2 38251  55.7085 306.0686 0011144 284.5645  75.3183  1.86229573 94851
BEIDOU-2 M6 (C14)       
1 38775U 12050B   26110.37635046 -.00000019  00000+0  00000+0 0  9991
2 38775  56.4963  64.8049 0014498 347.7895  12.1441  1.86230781 92230
BEIDOU-2 G6 (C02)       
1 38953U 12059A   26111.51957145 -.00000178  00000+0  00000+0 0  9998
2 38953   4.2784  74.1032 0010679 314.9443  91.5327  1.00267788 49349
BEIDOU-3S IGSO-1S (C31) 
1 40549U 15019A   26110.92806314 -.00000174  00000+0  00000+0 0  9992
2 40549  49.3037 296.1460 0037386 190.1068 152.1476  1.00261528 40498
BEIDOU-3S M2S (C58)     
1 40748U 15037A   26109.25887955 -.00000036  00000+0  00000+0 0  9994
2 40748  54.9234 304.0751 0007574 273.2229  86.6941  1.86232057 73022
BEIDOU-3S M1S (C57)     
1 40749U 15037B   26109.47349869 -.00000036  00000+0  00000+0 0  9996
2 40749  54.9204 304.0548 0004510  49.2617 310.7806  1.86254762 73032
BEIDOU-3S IGSO-2S (C56) 
1 40938U 15053A   26111.37928769 -.00000151  00000+0  00000+0 0  9996
2 40938  49.3133 259.4548 0063589 189.9219 353.4629  1.00272217 38786
BEIDOU-2 IGSO-6 (C13)   
1 41434U 16021A   26109.79423457 -.00000171  00000+0  00000+0 0  9993
2 41434  60.1501  38.6209 0057916 233.1843 317.3426  1.00269208 36891
BEIDOU-2 G7 (C03)       
1 41586U 16037A   26111.52485814 -.00000358  00000+0  00000+0 0  9994
2 41586   1.5798  68.7274 0007521 353.2381  87.1111  1.00267843  6321
BEIDOU-3 M1 (C19)       
1 43001U 17069A   26111.21567234 -.00000018  00000+0  00000+0 0  9990
2 43001  56.6452  64.9601 0012240 317.3708  42.5051  1.86230765 57548
BEIDOU-3 M2 (C20)       
1 43002U 17069B   26110.08035122 -.00000019  00000+0  00000+0 0  9992
2 43002  56.6433  65.0335 0010132 337.4151  22.5083  1.86230675 57517
BEIDOU-3 M7 (C27)       
1 43107U 18003A   26110.35883917 -.00000039  00000+0  00000+0 0  9992
2 43107  54.3803 304.3313 0005244  82.1324 277.9282  1.86227935 56272
BEIDOU-3 M8 (C28)       
1 43108U 18003B   26110.84146126 -.00000039  00000+0  00000+0 0  9991
2 43108  54.3718 304.2965 0002278 286.7684  73.2067  1.86230898 56297
BEIDOU-3 M4 (C22)       
1 43207U 18018A   26111.28394699 -.00000017  00000+0  00000+0 0  9992
2 43207  56.6043  65.0238 0007769   0.9469 359.0255  1.86230749 55686
BEIDOU-3 M3 (C21)       
1 43208U 18018B   26110.27647650 -.00000019  00000+0  00000+0 0  9991
2 43208  56.6028  65.0609 0010029 328.7782  31.1308  1.86230888 55663
BEIDOU-3 M9 (C29)       
1 43245U 18029A   26109.95705515 -.00000036  00000+0  00000+0 0  9991
2 43245  54.2472 301.9841 0000882  80.7178 279.2901  1.86228028 54814
BEIDOU-3 M10 (C30)      
1 43246U 18029B   26109.35475492 -.00000035  00000+0  00000+0 0  9993
2 43246  54.2457 302.0329 0004923  33.7738 326.2572  1.86229118 54785
BEIDOU-2 IGSO-7 (C16)   
1 43539U 18057A   26111.06711638 -.00000077  00000+0  00000+0 0  9991
2 43539  55.1838 163.5576 0103159 237.4748 305.0779  1.00267411 28556
BEIDOU-3 M5 (C23)       
1 43581U 18062A   26110.65290076  .00000030  00000+0  00000+0 0  9994
2 43581  54.0830 184.2608 0004125 288.9890  71.0395  1.86229115 52566
BEIDOU-3 M6 (C24)       
1 43582U 18062B   26111.05303913  .00000023  00000+0  00000+0 0  9997
2 43582  54.0837 184.2366 0005030  25.4126 334.6838  1.86227447 52574
BEIDOU-3 M12 (C26)      
1 43602U 18067A   26109.38056515  .00000047  00000+0  00000+0 0  9997
2 43602  54.1790 183.0349 0007973  35.6907 324.4401  1.86227937 52029
BEIDOU-3 M11 (C25)      
1 43603U 18067B   26108.44153212  .00000055  00000+0  00000+0 0  9995
2 43603  54.1762 183.0305 0004503  24.0779 336.0202  1.86227403 52033
BEIDOU-3 M13 (C32)      
1 43622U 18072A   26111.08154278 -.00000019  00000+0  00000+0 0  9990
2 43622  56.5769  64.5433 0008892 317.2930  42.6086  1.86231124 51598
BEIDOU-3 M14 (C33)      
1 43623U 18072B   26110.94698718 -.00000019  00000+0  00000+0 0  9997
2 43623  56.5788  64.5419 0006877 339.8122  20.1310  1.86231193 51584
BEIDOU-3 M16 (C35)      
1 43647U 18078A   26110.02931906 -.00000036  00000+0  00000+0 0  9996
2 43647  54.1438 302.0240 0008219  37.6694 322.3861  1.86232193 51070
BEIDOU-3 M15 (C34)      
1 43648U 18078B   26109.62167446 -.00000036  00000+0  00000+0 0  9991
2 43648  54.1396 302.0395 0005256  47.8594 312.1841  1.86232270 51087
BEIDOU-3 G1 (C59)       
1 43683U 18085A   26111.50337485 -.00000114  00000+0  00000+0 0  9997
2 43683   2.9305  98.8964 0007183 332.0706 119.8724  1.00265390 27499
BEIDOU-3 M17 (C36)      
1 43706U 18093A   26110.40103689  .00000033  00000+0  00000+0 0  9996
2 43706  54.1671 184.2572 0008816 291.4410 123.4424  1.86228281 50462
BEIDOU-3 M18 (C37)      
1 43707U 18093B   26110.71894021  .00000029  00000+0  00000+0 0  9993
2 43707  54.1678 184.2386 0006910 325.9701  34.0587  1.86226667 50465
BEIDOU-3 IGSO-1 (C38)   
1 44204U 19023A   26110.03709628 -.00000228  00000+0  00000+0 0  9995
2 44204  58.6186  38.2497 0024357 235.9811  64.3555  1.00256582  6624
BEIDOU-2 G8 (C01)       
1 44231U 19027A   26111.53153149 -.00000252  00000+0  00000+0 0  9993
2 44231   1.5144  74.3320 0011095 277.9263 193.2514  1.00269532 25518
BEIDOU-3 IGSO-2 (C39)   
1 44337U 19035A   26111.52659147 -.00000102  00000+0  00000+0 0  9991
2 44337  55.2341 159.3608 0039538 214.9888 144.1630  1.00284442 25093
BEIDOU-3 M24 (C46)      
1 44542U 19061A   26110.78831867  .00000028  00000+0  00000+0 0  9992
2 44542  54.3943 184.6640 0008005   7.1740 352.9099  1.86229048 44724
BEIDOU-3 M23 (C45)      
1 44543U 19061B   26109.88739097  .00000040  00000+0  00000+0 0  9998
2 44543  54.3933 184.6630 0004887 350.8773  37.1445  1.86227217 44713
BEIDOU-3 IGSO-3 (C40)   
1 44709U 19073A   26110.87583213 -.00000191  00000+0  00000+0 0  9991
2 44709  54.9003 281.5142 0041890 188.7552 171.0874  1.00254367 23885
BEIDOU-3 M22 (C44)      
1 44793U 19078A   26110.09040291 -.00000036  00000+0  00000+0 0  9995
2 44793  53.9894 301.8713 0007387  44.8265 315.2306  1.86227175 43561
BEIDOU-3 M21 (C43)      
1 44794U 19078B   26109.15655844 -.00000035  00000+0  00000+0 0  9996
2 44794  53.9636 301.8668 0005217  41.8840 318.1557  1.86227724 43550
BEIDOU-3 M19 (C41)      
1 44864U 19090A   26110.74499313 -.00000019  00000+0  00000+0 0  9994
2 44864  56.5117  64.6881 0019850 295.8395 246.0139  1.86231124 43167
BEIDOU-3 M20 (C42)      
1 44865U 19090B   26110.61614718 -.00000019  00000+0  00000+0 0  9999
2 44865  56.5125  64.7272 0017530 307.8053 237.2671  1.86231192 43146
BEIDOU-3 G2 (C60)       
1 45344U 20017A   26111.51879145 -.00000145  00000+0  00000+0 0  9990
2 45344   2.7507  46.4144 0002413 344.1930  85.7930  1.00271720 22691
BEIDOU-3 G3 (C61)       
1 45807U 20040A   26111.52477147 -.00000359  00000+0  00000+0 0  9994
2 45807   2.3081  67.2587 0003632 326.7687 115.0292  1.00272965 21508
BEIDOU-3 G4 (C62)       
1 56564U 23066A   26111.53066483 -.00000287  00000+0  00000+0 0  9995
2 56564   0.5662 318.9460 0002502 165.0334  56.7235  1.00273810 10820
BEIDOU-3 M28 (C50)      
1 58654U 23207A   26110.30772388 -.00000022  00000+0  00000+0 0  9993
2 58654  55.7041  64.2547 0004706 320.5992  39.3358  1.86229582 15760
BEIDOU-3 M26 (C48)      
1 58655U 23207B   26111.17913706 -.00000021  00000+0  00000+0 0  9990
2 58655  55.7067  64.2120 0005115 303.5242  56.3983  1.86229551 15769
BEIDOU-3 M25 (C47)      
1 61186U 24168B   26111.28169656 -.00000039  00000+0  00000+0 0  9998
2 61186  54.5245 304.2187 0003331 318.9729 226.8734  1.86229787 10725
BEIDOU-3 M27 (C49)      
1 61187U 24168C   26109.45797541 -.00000037  00000+0  00000+0 0  9993
2 61187  54.5220 304.2655 0002607  37.6520 140.4970  1.86229921  8166
